[{"OBJECT_NAME":"STARLINK-3098","OBJECT_ID":"2021-104AL","EPOCH":"2025-07-28T01:32:30.975360","MEAN_MOTION":15.08839263,"ECCENTRICITY":0.0001984,"INCLINATION":53.2178,"RA_OF_ASC_NODE":137.5055,"ARG_OF_PERICENTER":94.217,"MEAN_ANOMALY":265.9049,"EPHEMERIS_TYPE":0,"CLASSIFICATION_TYPE":"U","NORAD_CAT_ID":49442,"ELEMENT_SET_NO":999,"REV_AT_EPOCH":20608,"BSTAR":2.8495e-5,"MEAN_MOTION_DOT":1.65e-6,"MEAN_MOTION_DDOT":0},{"OBJECT_NAME":"STARLINK-3136","OBJECT_ID":"2021-104AM","EPOCH":"2025-07-27T12:22:55.881984","MEAN_MOTION":15.08836785,"ECCENTRICITY":0.0001263,"INCLINATION":53.2172,"RA_OF_ASC_NODE":139.9649,"ARG_OF_PERICENTER":87.4051,"MEAN_ANOMALY":272.7086,"EPHEMERIS_TYPE":0,"CLASSIFICATION_TYPE":"U","NORAD_CAT_ID":49443,"ELEMENT_SET_NO":999,"REV_AT_EPOCH":20492,"BSTAR":4.9959e-5,"MEAN_MOTION_DOT":5.07e-6,"MEAN_MOTION_DDOT":0},{"OBJECT_NAME":"STARLINK-3126","OBJECT_ID":"2021-104AN","EPOCH":"2025-07-27T12:45:30.443040","MEAN_MOTION":15.08837935,"ECCENTRICITY":0.0001439,"INCLINATION":53.2167,"RA_OF_ASC_NODE":139.9072,"ARG_OF_PERICENTER":87.3687,"MEAN_ANOMALY":272.747,"EPHEMERIS_TYPE":0,"CLASSIFICATION_TYPE":"U","NORAD_CAT_ID":49444,"ELEMENT_SET_NO":999,"REV_AT_EPOCH":20492,"BSTAR":6.4141e-5,"MEAN_MOTION_DOT":7.33e-6,"MEAN_MOTION_DDOT":0},{"OBJECT_NAME":"STARLINK-3122","OBJECT_ID":"2021-104AP","EPOCH":"2025-07-28T02:41:31.409376","MEAN_MOTION":15.08837644,"ECCENTRICITY":0.0001375,"INCLINATION":53.217,"RA_OF_ASC_NODE":147.6855,"ARG_OF_PERICENTER":86.3364,"MEAN_ANOMALY":273.7785,"EPHEMERIS_TYPE":0,"CLASSIFICATION_TYPE":"U","NORAD_CAT_ID":49445,"ELEMENT_SET_NO":999,"REV_AT_EPOCH":20594,"BSTAR":-3.611e-6,"MEAN_MOTION_DOT":-3.45e-6,"MEAN_MOTION_DDOT":0},{"OBJECT_NAME":"STARLINK-3099","OBJECT_ID":"2021-104AQ","EPOCH":"2025-07-28T02:57:18.273888","MEAN_MOTION":15.0883984,"ECCENTRICITY":0.0001875,"INCLINATION":53.2186,"RA_OF_ASC_NODE":137.2425,"ARG_OF_PERICENTER":87.821,"MEAN_ANOMALY":272.2997,"EPHEMERIS_TYPE":0,"CLASSIFICATION_TYPE":"U","NORAD_CAT_ID":49446,"ELEMENT_SET_NO":999,"REV_AT_EPOCH":20608,"BSTAR":2.8008e-5,"MEAN_MOTION_DOT":1.58e-6,"MEAN_MOTION_DDOT":0},{"OBJECT_NAME":"STARLINK-3115","OBJECT_ID":"2021-104AR","EPOCH":"2025-07-28T04:47:15.712224","MEAN_MOTION":15.08834257,"ECCENTRICITY":0.0001468,"INCLINATION":53.2168,"RA_OF_ASC_NODE":146.8955,"ARG_OF_PERICENTER":83.8176,"MEAN_ANOMALY":276.2983,"EPHEMERIS_TYPE":0,"CLASSIFICATION_TYPE":"U","NORAD_CAT_ID":49447,"ELEMENT_SET_NO":999,"REV_AT_EPOCH":20595,"BSTAR":1.9669e-5,"MEAN_MOTION_DOT":2.5e-7,"MEAN_MOTION_DDOT":0},{"OBJECT_NAME":"STARLINK-3137","OBJECT_ID":"2021-104AT","EPOCH":"2025-07-27T19:00:25.108992","MEAN_MOTION":15.08834404,"ECCENTRICITY":0.0001657,"INCLINATION":53.2185,"RA_OF_ASC_NODE":148.6653,"ARG_OF_PERICENTER":77.8025,"MEAN_ANOMALY":282.3153,"EPHEMERIS_TYPE":0,"CLASSIFICATION_TYPE":"U","NORAD_CAT_ID":49449,"ELEMENT_SET_NO":999,"REV_AT_EPOCH":20482,"BSTAR":-1.3026e-6,"MEAN_MOTION_DOT":-3.09e-6,"MEAN_MOTION_DDOT":0},{"OBJECT_NAME":"STARLINK-3127","OBJECT_ID":"2021-104AU","EPOCH":"2025-07-28T04:57:52.147584","MEAN_MOTION":15.08834425,"ECCENTRICITY":0.0001401,"INCLINATION":53.217,"RA_OF_ASC_NODE":146.9027,"ARG_OF_PERICENTER":73.121,"MEAN_ANOMALY":286.9936,"EPHEMERIS_TYPE":0,"CLASSIFICATION_TYPE":"U","NORAD_CAT_ID":49450,"ELEMENT_SET_NO":999,"REV_AT_EPOCH":20595,"BSTAR":3.7261e-5,"MEAN_MOTION_DOT":3.05e-6,"MEAN_MOTION_DDOT":0},{"OBJECT_NAME":"STARLINK-3125","OBJECT_ID":"2021-104AV","EPOCH":"2025-07-27T12:42:48.438720","MEAN_MOTION":15.0883599,"ECCENTRICITY":0.0001401,"INCLINATION":53.2162,"RA_OF_ASC_NODE":149.9017,"ARG_OF_PERICENTER":96.7393,"MEAN_ANOMALY":263.3759,"EPHEMERIS_TYPE":0,"CLASSIFICATION_TYPE":"U","NORAD_CAT_ID":49451,"ELEMENT_SET_NO":999,"REV_AT_EPOCH":20478,"BSTAR":1.2902e-5,"MEAN_MOTION_DOT":-8.3e-7,"MEAN_MOTION_DDOT":0},{"OBJECT_NAME":"STARLINK-3150","OBJECT_ID":"2021-104AW","EPOCH":"2025-07-28T02:46:45.691968","MEAN_MOTION":15.0883516,"ECCENTRICITY":0.0001424,"INCLINATION":53.2172,"RA_OF_ASC_NODE":147.3119,"ARG_OF_PERICENTER":88.9153,"MEAN_ANOMALY":271.2003,"EPHEMERIS_TYPE":0,"CLASSIFICATION_TYPE":"U","NORAD_CAT_ID":49452,"ELEMENT_SET_NO":999,"REV_AT_EPOCH":20595,"BSTAR":-2.9129e-5,"MEAN_MOTION_DOT":-7.51e-6,"MEAN_MOTION_DDOT":0},{"OBJECT_NAME":"STARLINK-3129","OBJECT_ID":"2021-104AX","EPOCH":"2025-07-27T12:44:11.912352","MEAN_MOTION":15.0883724,"ECCENTRICITY":0.0001561,"INCLINATION":53.2163,"RA_OF_ASC_NODE":149.9833,"ARG_OF_PERICENTER":102.91,"MEAN_ANOMALY":257.2066,"EPHEMERIS_TYPE":0,"CLASSIFICATION_TYPE":"U","NORAD_CAT_ID":49453,"ELEMENT_SET_NO":999,"REV_AT_EPOCH":20585,"BSTAR":7.6137e-6,"MEAN_MOTION_DOT":-1.67e-6,"MEAN_MOTION_DDOT":0},{"OBJECT_NAME":"STARLINK-3160","OBJECT_ID":"2021-104AY","EPOCH":"2025-07-27T07:51:20.535264","MEAN_MOTION":15.08837266,"ECCENTRICITY":0.0001365,"INCLINATION":53.2164,"RA_OF_ASC_NODE":150.8099,"ARG_OF_PERICENTER":91.6393,"MEAN_ANOMALY":268.4755,"EPHEMERIS_TYPE":0,"CLASSIFICATION_TYPE":"U","NORAD_CAT_ID":49454,"ELEMENT_SET_NO":999,"REV_AT_EPOCH":20475,"BSTAR":3.9133e-5,"MEAN_MOTION_DOT":3.35e-6,"MEAN_MOTION_DDOT":0},{"OBJECT_NAME":"STARLINK-3145","OBJECT_ID":"2021-104AZ","EPOCH":"2025-07-27T20:13:14.109024","MEAN_MOTION":15.08837199,"ECCENTRICITY":0.0001497,"INCLINATION":53.218,"RA_OF_ASC_NODE":148.5006,"ARG_OF_PERICENTER":91.8623,"MEAN_ANOMALY":268.2541,"EPHEMERIS_TYPE":0,"CLASSIFICATION_TYPE":"U","NORAD_CAT_ID":49455,"ELEMENT_SET_NO":999,"REV_AT_EPOCH":20483,"BSTAR":2.231e-5,"MEAN_MOTION_DOT":6.7e-7,"MEAN_MOTION_DDOT":0},{"OBJECT_NAME":"STARLINK-3124","OBJECT_ID":"2021-104BA","EPOCH":"2025-07-27T09:22:49.133280","MEAN_MOTION":15.08835593,"ECCENTRICITY":0.0001219,"INCLINATION":53.2165,"RA_OF_ASC_NODE":150.5751,"ARG_OF_PERICENTER":86.1344,"MEAN_ANOMALY":273.9787,"EPHEMERIS_TYPE":0,"CLASSIFICATION_TYPE":"U","NORAD_CAT_ID":49456,"ELEMENT_SET_NO":999,"REV_AT_EPOCH":20476,"BSTAR":-3.0845e-5,"MEAN_MOTION_DOT":-7.79e-6,"MEAN_MOTION_DDOT":0},{"OBJECT_NAME":"STARLINK-3132","OBJECT_ID":"2021-104BB","EPOCH":"2025-07-27T13:47:46.420512","MEAN_MOTION":15.08835669,"ECCENTRICITY":0.0001384,"INCLINATION":53.2176,"RA_OF_ASC_NODE":149.7138,"ARG_OF_PERICENTER":89.0627,"MEAN_ANOMALY":271.0524,"EPHEMERIS_TYPE":0,"CLASSIFICATION_TYPE":"U","NORAD_CAT_ID":49457,"ELEMENT_SET_NO":999,"REV_AT_EPOCH":20479,"BSTAR":6.5195e-6,"MEAN_MOTION_DOT":-1.84e-6,"MEAN_MOTION_DDOT":0},{"OBJECT_NAME":"STARLINK-3156","OBJECT_ID":"2021-104BC","EPOCH":"2025-07-27T20:18:32.548320","MEAN_MOTION":15.08843353,"ECCENTRICITY":0.0001466,"INCLINATION":53.2161,"RA_OF_ASC_NODE":148.484,"ARG_OF_PERICENTER":77.4121,"MEAN_ANOMALY":282.7035,"EPHEMERIS_TYPE":0,"CLASSIFICATION_TYPE":"U","NORAD_CAT_ID":49458,"ELEMENT_SET_NO":999,"REV_AT_EPOCH":20483,"BSTAR":0.00039787,"MEAN_MOTION_DOT":6.05e-5,"MEAN_MOTION_DDOT":0},{"OBJECT_NAME":"STARLINK-3141","OBJECT_ID":"2021-104BD","EPOCH":"2025-07-27T20:02:38.428800","MEAN_MOTION":15.08848739,"ECCENTRICITY":0.0001209,"INCLINATION":53.2168,"RA_OF_ASC_NODE":148.5325,"ARG_OF_PERICENTER":77.5416,"MEAN_ANOMALY":282.5711,"EPHEMERIS_TYPE":0,"CLASSIFICATION_TYPE":"U","NORAD_CAT_ID":49459,"ELEMENT_SET_NO":999,"REV_AT_EPOCH":20483,"BSTAR":0.00022104,"MEAN_MOTION_DOT":3.233e-5,"MEAN_MOTION_DDOT":0},{"OBJECT_NAME":"STARLINK-3140","OBJECT_ID":"2021-104BE","EPOCH":"2025-07-28T02:18:53.386272","MEAN_MOTION":15.08840793,"ECCENTRICITY":0.0001558,"INCLINATION":53.2164,"RA_OF_ASC_NODE":147.3588,"ARG_OF_PERICENTER":88.0468,"MEAN_ANOMALY":272.0702,"EPHEMERIS_TYPE":0,"CLASSIFICATION_TYPE":"U","NORAD_CAT_ID":49460,"ELEMENT_SET_NO":999,"REV_AT_EPOCH":20595,"BSTAR":-9.106e-5,"MEAN_MOTION_DOT":-1.737e-5,"MEAN_MOTION_DDOT":0},{"OBJECT_NAME":"STARLINK-3219","OBJECT_ID":"2021-115A","EPOCH":"2025-07-27T21:36:44.367264","MEAN_MOTION":15.08836842,"ECCENTRICITY":0.0001459,"INCLINATION":53.2184,"RA_OF_ASC_NODE":78.46,"ARG_OF_PERICENTER":91.0511,"MEAN_ANOMALY":269.0648,"EPHEMERIS_TYPE":0,"CLASSIFICATION_TYPE":"U","NORAD_CAT_ID":49724,"ELEMENT_SET_NO":999,"REV_AT_EPOCH":20159,"BSTAR":-3.2263e-6,"MEAN_MOTION_DOT":-3.39e-6,"MEAN_MOTION_DDOT":0},{"OBJECT_NAME":"STARLINK-3218","OBJECT_ID":"2021-115B","EPOCH":"2025-07-27T22:08:30.896448","MEAN_MOTION":15.08836314,"ECCENTRICITY":0.0001454,"INCLINATION":53.2188,"RA_OF_ASC_NODE":78.2446,"ARG_OF_PERICENTER":94.4376,"MEAN_ANOMALY":265.6782,"EPHEMERIS_TYPE":0,"CLASSIFICATION_TYPE":"U","NORAD_CAT_ID":49725,"ELEMENT_SET_NO":999,"REV_AT_EPOCH":20160,"BSTAR":-3.5584e-5,"MEAN_MOTION_DOT":-8.54e-6,"MEAN_MOTION_DDOT":0},{"OBJECT_NAME":"STARLINK-3242","OBJECT_ID":"2021-115D","EPOCH":"2025-07-28T01:49:43.549536","MEAN_MOTION":15.08846091,"ECCENTRICITY":0.000131,"INCLINATION":53.2172,"RA_OF_ASC_NODE":87.4486,"ARG_OF_PERICENTER":91.1695,"MEAN_ANOMALY":268.9447,"EPHEMERIS_TYPE":0,"CLASSIFICATION_TYPE":"U","NORAD_CAT_ID":49727,"ELEMENT_SET_NO":999,"REV_AT_EPOCH":20260,"BSTAR":3.3626e-5,"MEAN_MOTION_DOT":2.47e-6,"MEAN_MOTION_DDOT":0},{"OBJECT_NAME":"STARLINK-3240","OBJECT_ID":"2021-115E","EPOCH":"2025-07-27T21:08:52.524672","MEAN_MOTION":15.08839158,"ECCENTRICITY":0.000144,"INCLINATION":53.2178,"RA_OF_ASC_NODE":88.3241,"ARG_OF_PERICENTER":94.409,"MEAN_ANOMALY":265.7067,"EPHEMERIS_TYPE":0,"CLASSIFICATION_TYPE":"U","NORAD_CAT_ID":49728,"ELEMENT_SET_NO":999,"REV_AT_EPOCH":20256,"BSTAR":1.9309e-5,"MEAN_MOTION_DOT":1.9e-7,"MEAN_MOTION_DDOT":0},{"OBJECT_NAME":"STARLINK-3251","OBJECT_ID":"2021-115F","EPOCH":"2025-07-28T01:44:24.756000","MEAN_MOTION":15.08839973,"ECCENTRICITY":0.0001445,"INCLINATION":53.2182,"RA_OF_ASC_NODE":87.3505,"ARG_OF_PERICENTER":96.3237,"MEAN_ANOMALY":263.7919,"EPHEMERIS_TYPE":0,"CLASSIFICATION_TYPE":"U","NORAD_CAT_ID":49729,"ELEMENT_SET_NO":999,"REV_AT_EPOCH":20259,"BSTAR":-2.6769e-5,"MEAN_MOTION_DOT":-7.14e-6,"MEAN_MOTION_DDOT":0}]
